NORAD_CAT_ID,OBJECT_NAME,OBJECT_TYPE,EPOCH,MEAN_MOTION,ECCENTRICITY,INCLINATION,RA_OF_ASC_NODE,ARG_OF_PERICENTER,MEAN_ANOMALY,BSTAR,MEAN_MOTION_DOT,MEAN_MOTION_DDOT,TLE_LINE0,TLE_LINE1,TLE_LINE2,SEMIMAJOR_AXIS,PERIOD,APOGEE,PERIGEE,DECAYED
52093.0,STARLINK-3673,PAYLOAD,2024-08-03 21:27:29,15.08840191,0.0001393,53.2167,185.4035,94.5044,265.6107,4.3044e-05,3.97e-06,0.0,0 STARLINK-3673,1 52093U 22029F   24216.89409428  .00000397  00000-0  43044-4 0  9991,2 52093  53.2167 185.4035 0001393  94.5044 265.6107 15.08840191132676,6917.88,95.438,540.708,538.781,0.0
52093.0,STARLINK-3673,PAYLOAD,2024-08-04 03:49:02,15.08843022,0.0001412,53.2164,184.214,94.1203,265.995,6.5845e-05,7.6e-06,0.0,0 STARLINK-3673,1 52093U 22029F   24217.15905186  .00000760  00000-0  65845-4 0  9990,2 52093  53.2164 184.2140 0001412  94.1203 265.9950 15.08843022132712,6917.871,95.437,540.713,538.759,0.0
52093.0,STARLINK-3673,PAYLOAD,2024-08-04 05:24:24,15.08853389,0.0001376,53.2165,183.9167,92.6234,267.4916,-2.7782e-05,-7.3e-06,0.0,0 STARLINK-3673,1 52093U 22029F   24217.22528810 -.00000730  00000-0 -27782-4 0  9990,2 52093  53.2165 183.9167 0001376  92.6234 267.4916 15.08853389132721,6917.839,95.437,540.656,538.753,0.0
52093.0,STARLINK-3673,PAYLOAD,2024-08-04 14:56:44,15.08842794,0.0001281,53.2154,182.1312,85.7284,274.3855,4.9481e-05,5e-06,0.0,0 STARLINK-3673,1 52093U 22029F   24217.62273193  .00000500  00000-0  49481-4 0  9998,2 52093  53.2154 182.1312 0001281  85.7284 274.3855 15.08842794132788,6917.872,95.437,540.623,538.851,0.0
52093.0,STARLINK-3673,PAYLOAD,2024-08-05 05:15:11,15.0885098,0.0001403,53.2161,179.4552,88.9033,271.212,0.00017952,2.571e-05,0.0,0 STARLINK-3673,1 52093U 22029F   24218.21888396  .00002571  00000-0  17952-3 0  9998,2 52093  53.2161 179.4552 0001403  88.9033 271.2120 15.08850980132871,6917.847,95.437,540.682,538.741,0.0
52093.0,STARLINK-3673,PAYLOAD,2024-08-05 14:47:31,15.08834742,0.0001415,53.2157,177.6708,92.2437,267.8717,1.6338e-05,-2.8e-07,0.0,0 STARLINK-3673,1 52093U 22029F   24218.61633851 -.00000028  00000-0  16338-4 0  9990,2 52093  53.2157 177.6708 0001415  92.2437 267.8717 15.08834742132936,6917.896,95.438,540.74,538.783,0.0
52093.0,STARLINK-3673,PAYLOAD,2024-08-06 03:30:37,15.08825026,0.0001589,53.2168,175.2918,102.1876,257.9294,-0.00010324,-1.93e-05,0.0,0 STARLINK-3673,1 52093U 22029F   24219.14627219 -.00001930  00000-0 -10324-3 0  9992,2 52093  53.2168 175.2918 0001589 102.1876 257.9294 15.08825026133010,6917.926,95.439,540.89,538.692,0.0
52093.0,STARLINK-3673,PAYLOAD,2024-08-06 14:38:19,15.08832315,0.0001692,53.2181,173.207,107.3705,252.7472,-2.7743e-05,-7.29e-06,0.0,0 STARLINK-3673,1 52093U 22029F   24219.60994685 -.00000729  00000-0 -27743-4 0  9996,2 52093  53.2181 173.2070 0001692 107.3705 252.7472 15.08832315133082,6917.904,95.438,540.939,538.598,0.0
52093.0,STARLINK-3673,PAYLOAD,2024-08-07 01:46:00,15.08846935,0.0001542,53.2164,171.1258,106.0702,254.046,0.00010211,1.338e-05,0.0,0 STARLINK-3673,1 52093U 22029F   24220.07361370  .00001338  00000-0  10211-3 0  9994,2 52093  53.2164 171.1258 0001542 106.0702 254.0460 15.08846935133158,6917.859,95.437,540.791,538.657,0.0
52093.0,STARLINK-3673,PAYLOAD,2024-08-08 06:22:56,15.08845582,0.0001593,53.2175,165.7722,107.8368,252.2798,0.00018936,2.727e-05,0.0,0 STARLINK-3673,1 52093U 22029F   24221.26593399  .00002727  00000-0  18936-3 0  9999,2 52093  53.2175 165.7722 0001593 107.8368 252.2798 15.08845582133339,6917.863,95.437,540.83,538.626,0.0
52093.0,STARLINK-3673,PAYLOAD,2024-08-09 03:02:58,15.08842122,0.0001459,53.2167,161.9119,95.65,264.4659,1.6243e-05,-2.9e-07,0.0,0 STARLINK-3673,1 52093U 22029F   24222.12706314 -.00000029  00000-0  16243-4 0  9992,2 52093  53.2167 161.9119 0001459  95.6500 264.4659 15.08842122133463,6917.874,95.437,540.748,538.73,0.0
52093.0,STARLINK-3673,PAYLOAD,2024-08-09 12:35:16,15.08843399,0.0001394,53.2172,160.1203,80.5147,279.6003,1.033e-05,-1.24e-06,0.0,0 STARLINK-3673,1 52093U 22029F   24222.52450014 -.00000124  00000-0  10330-4 0  9996,2 52093  53.2172 160.1203 0001394  80.5147 279.6003 15.08843399133527,6917.87,95.437,540.699,538.771,0.0
52093.0,STARLINK-3673,PAYLOAD,2024-08-09 20:32:12,15.08842051,0.0001057,53.2158,158.64,98.8649,261.2462,-0.00011317,-2.089e-05,0.0,0 STARLINK-3673,1 52093U 22029F   24222.85570477 -.00002089  00000-0 -11317-3 0  9996,2 52093  53.2158 158.6400 0001057  98.8649 261.2462 15.08842051133572,6917.874,95.437,540.47,539.008,0.0
52093.0,STARLINK-3673,PAYLOAD,2024-08-10 04:29:06,15.08860877,0.0001257,53.2168,157.1507,106.764,253.349,9.5099e-05,1.227e-05,0.0,0 STARLINK-3673,1 52093U 22029F   24223.18688428  .00001227  00000-0  95099-4 0  9990,2 52093  53.2168 157.1507 0001257 106.7640 253.3490 15.08860877133622,6917.817,95.436,540.551,538.812,0.0
52093.0,STARLINK-3673,PAYLOAD,2024-08-10 20:22:59,15.08841683,0.0001395,53.2167,154.1761,84.8753,275.2398,1.1881e-05,-9.9e-07,0.0,0 STARLINK-3673,1 52093U 22029F   24223.84930228 -.00000099  00000-0  11881-4 0  9995,2 52093  53.2167 154.1761 0001395  84.8753 275.2398 15.08841683133729,6917.875,95.437,540.705,538.775,0.0
52093.0,STARLINK-3673,PAYLOAD,2024-08-11 18:38:23,15.08837719,0.0001931,53.2165,150.017,77.3663,282.7545,0.00016551,2.347e-05,0.0,0 STARLINK-3673,1 52093U 22029F   24224.77666342  .00002347  00000-0  16551-3 0  9996,2 52093  53.2165 150.0170 0001931  77.3663 282.7545 15.08837719133866,6917.887,95.438,541.088,538.417,0.0
52093.0,STARLINK-3673,PAYLOAD,2024-08-12 04:10:40,15.08863958,0.0001234,53.2171,148.2302,94.624,265.4894,0.00016038,2.267e-05,0.0,0 STARLINK-3673,1 52093U 22029F   24225.17408285  .00002267  00000-0  16038-3 0  9992,2 52093  53.2171 148.2302 0001234  94.6240 265.4894 15.08863958133924,6917.807,95.436,540.526,538.819,0.0
52093.0,STARLINK-3673,PAYLOAD,2024-08-12 12:07:36,15.08854238,0.0001098,53.2173,146.7416,103.7408,256.3707,-2.8561e-05,-7.43e-06,0.0,0 STARLINK-3673,1 52093U 22029F   24225.50528895 -.00000743  00000-0 -28561-4 0  9993,2 52093  53.2173 146.7416 0001098 103.7408 256.3707 15.08854238133979,6917.837,95.437,540.461,538.942,0.0
52093.0,STARLINK-3673,PAYLOAD,2024-08-12 18:29:09,15.08846537,0.0001169,53.2149,145.5552,97.7032,262.4093,7.1931e-05,8.57e-06,0.0,0 STARLINK-3673,1 52093U 22029F   24225.77025268  .00000857  00000-0  71931-4 0  9991,2 52093  53.2149 145.5552 0001169  97.7032 262.4093 15.08846537134019,6917.86,95.437,540.534,538.917,0.0
52093.0,STARLINK-3673,PAYLOAD,2024-08-13 04:01:31,15.08796499,0.0001723,53.2169,143.7711,93.6856,266.4333,-0.00064433,-0.00010516,0.0,0 STARLINK-3673,1 52093U 22029F   24226.16772009 -.00010516  00000-0 -64433-3 0  9990,2 52093  53.2169 143.7711 0001723  93.6856 266.4333 15.08796499134071,6918.013,95.44,541.07,538.686,0.0
52093.0,STARLINK-3673,PAYLOAD,2024-08-13 11:58:27,15.08780924,0.0001551,53.2162,142.2794,102.9151,257.2015,-0.00084744,-0.00013728,0.0,0 STARLINK-3673,1 52093U 22029F   24226.49893502 -.00013728  00000-0 -84744-3 0  9993,2 52093  53.2162 142.2794 0001551 102.9151 257.2015 15.08780924134127,6918.061,95.441,540.999,538.853,0.0
52093.0,STARLINK-3673,PAYLOAD,2024-08-13 23:06:08,15.08834872,0.0001502,53.2146,140.2051,85.0597,275.0567,0.0002316,3.399e-05,0.0,0 STARLINK-3673,1 52093U 22029F   24226.96260038  .00003399  00000-0  23160-3 0  9993,2 52093  53.2146 140.2051 0001502  85.0597 275.0567 15.08834872134193,6917.896,95.438,540.8,538.722,0.0
52093.0,STARLINK-3673,PAYLOAD,2024-08-14 03:52:17,15.08849444,0.0001393,53.2157,139.3085,99.5218,260.5932,0.00020272,2.941e-05,0.0,0 STARLINK-3673,1 52093U 22029F   24227.16131212  .00002941  00000-0  20272-3 0  9990,2 52093  53.2157 139.3085 0001393  99.5218 260.5932 15.08849444134229,6917.852,95.437,540.68,538.753,0.0
52093.0,STARLINK-3673,PAYLOAD,2024-08-14 21:21:32,15.08846799,0.000127,53.2156,136.0374,101.7815,258.3319,0.00042392,6.466e-05,0.0,0 STARLINK-3673,1 52093U 22029F   24227.88995488  .00006466  00000-0  42392-3 0  9995,2 52093  53.2156 136.0374 0001270 101.7815 258.3319 15.08846799134332,6917.86,95.437,540.603,538.846,0.0
52093.0,STARLINK-3673,PAYLOAD,2024-08-15 00:32:18,15.08850657,0.0001256,53.2165,135.4447,97.1191,262.9944,0.00045336,6.937e-05,0.0,0 STARLINK-3673,1 52093U 22029F   24228.02243266  .00006937  00000-0  45336-3 0  9996,2 52093  53.2165 135.4447 0001256  97.1191 262.9944 15.08850657134350,6917.848,95.437,540.582,538.844,0.0
52093.0,STARLINK-3673,PAYLOAD,2024-08-15 22:47:42,15.08842619,0.0001366,53.2146,131.2832,89.7711,270.3438,0.00023821,3.505e-05,0.0,0 STARLINK-3673,1 52093U 22029F   24228.94979857  .00003505  00000-0  23821-3 0  9992,2 52093  53.2146 131.2832 0001366  89.7711 270.3438 15.08842619134493,6917.872,95.437,540.682,538.792,0.0
52093.0,STARLINK-3673,PAYLOAD,2024-08-16 00:23:06,15.08832049,0.0001372,53.2157,130.9851,90.4653,269.6496,0.00031502,4.728e-05,0.0,0 STARLINK-3673,1 52093U 22029F   24229.01604252  .00004728  00000-0  31502-3 0  9998,2 52093  53.2157 130.9851 0001372  90.4653 269.6496 15.08832049134506,6917.905,95.438,540.719,538.821,0.0
52093.0,STARLINK-3673,PAYLOAD,2024-08-17 03:24:38,15.08855386,0.0001204,53.2164,125.9262,89.5677,270.5453,-5.4294e-05,-1.152e-05,0.0,0 STARLINK-3673,1 52093U 22029F   24230.14210675 -.00001152  00000-0 -54294-4 0  9990,2 52093  53.2164 125.9262 0001204  89.5677 270.5453 15.08855386134674,6917.833,95.437,540.531,538.865,0.0
52093.0,STARLINK-3673,PAYLOAD,2024-08-17 16:07:44,15.08831921,0.0001455,53.2166,123.5519,88.0486,272.0673,1.9308e-05,1.9e-07,0.0,0 STARLINK-3673,1 52093U 22029F   24230.67204059  .00000019  00000-0  19308-4 0  9993,2 52093  53.2166 123.5519 0001455  88.0486 272.0673 15.08831921134754,6917.905,95.438,540.777,538.764,0.0
52093.0,STARLINK-3673,PAYLOAD,2024-08-18 01:40:02,15.08836677,0.0001301,53.2176,121.7673,84.6908,275.4233,6.3572e-05,7.24e-06,0.0,0 STARLINK-3673,1 52093U 22029F   24231.06947868  .00000724  00000-0  63572-4 0  9994,2 52093  53.2176 121.7673 0001301  84.6908 275.4233 15.08836677134816,6917.891,95.438,540.656,538.856,0.0
